GLOBALSTAR M094         
1 39074U 13005C   25322.66483356 -.00000116  00000+0 -69699-4 0  9999
2 39074  51.9964  71.7755 0000594 132.7157 227.3760 12.62264952591882
GLOBALSTAR M096         
1 39075U 13005D   25322.83632660 -.00000104  00000+0 -28096-5 0  9997
2 39075  52.0048 119.8889 0000864 116.0119 244.0837 12.62268936590823
GLOBALSTAR M078         
1 39076U 13005E   25322.65206353 -.00000159  00000+0 -30830-3 0  9991
2 39076  51.9864 204.7552 0001277 121.8821 238.2170 12.62271725589421
GLOBALSTAR M095         
1 39077U 13005F   25322.91572271 -.00000058  00000+0  25544-3 0  9999
2 39077  52.0063 201.2569 0000776 103.9126 256.1828 12.62266523589314
GLOBALSTAR M087         
1 52888U 22064A   25322.77026724 -.00000088  00000+0  90622-4 0  9993
2 52888  52.0015 343.0558 0000200 137.2369 222.8514 12.62260549164560
